TEVEL2-4                
1 63213U 25052D   26065.22978390  .00021496  00000+0  72449-3 0  9998
2 63213  97.4026 321.6683 0004643 102.3485 257.8276 15.30745860 54346
TEVEL2-5                
1 63214U 25052E   26065.24046753  .00022120  00000+0  74812-3 0  9991
2 63214  97.4024 321.6522 0004606 102.6614 257.5142 15.30628333 54347
TEVEL2-6                
1 63215U 25052F   26065.25020065  .00022223  00000+0  75251-3 0  9993
2 63215  97.4024 321.6479 0004705 103.4581 256.7185 15.30586491 54347
TEVEL2-1                
1 63217U 25052H   26065.24750817  .00021481  00000+0  73692-3 0  9991
2 63217  97.3999 321.3811 0004627 112.4118 247.7613 15.30171419 54330
TEVEL2-3                
1 63218U 25052J   26065.24516551  .00021441  00000+0  73478-3 0  9995
2 63218  97.4004 321.3898 0004582 112.8346 247.3379 15.30206494 54338
TEVEL2-2                
1 63219U 25052K   26065.24817260  .00021749  00000+0  74599-3 0  9993
2 63219  97.4000 321.3822 0004548 112.7454 247.4267 15.30174270 54336
TEVEL2-9                
1 63237U 25052AD  26065.23272910  .00019380  00000+0  70037-3 0  9990
2 63237  97.4062 320.9430 0007886 134.9619 225.2261 15.28472470 54283
TEVEL2-7                
1 63238U 25052AE  26065.25654977  .00019573  00000+0  71193-3 0  9998
2 63238  97.4060 320.9202 0007820 133.7958 226.3929 15.28258296 54281
TEVEL2-8                
1 63239U 25052AF  26065.26352179  .00019944  00000+0  72584-3 0  9996
2 63239  97.4060 320.9075 0007744 135.4315 224.7548 15.28236257 54283
HADES-ICM               
1 63492U 25052BN  26065.16133539  .00133888  00000+0  19161-2 0  9998
2 63492  97.3953 325.4839 0008718 117.9382 242.2756 15.55698664 54597
